[{"OBJECT_NAME":"HINODE (SOLAR-B)","OBJECT_ID":"2006-041A","EPOCH":"2026-03-09T23:31:46.832160","MEAN_MOTION":14.68474529,"ECCENTRICITY":0.00163234,"INCLINATION":98.0624,"RA_OF_ASC_NODE":86.5729,"ARG_OF_PERICENTER":240.6819,"MEAN_ANOMALY":119.2756,"EPHEMERIS_TYPE":0,"CLASSIFICATION_TYPE":"U","NORAD_CAT_ID":29479,"ELEMENT_SET_NO":999,"REV_AT_EPOCH":4031,"BSTAR":0.00015629545,"MEAN_MOTION_DOT":8.58e-6,"MEAN_MOTION_DDOT":0},{"OBJECT_NAME":"PEGASUS R\/B","OBJECT_ID":"2003-017B","EPOCH":"2026-03-09T07:00:12.128256","MEAN_MOTION":14.64922101,"ECCENTRICITY":0.00050271,"INCLINATION":29.0046,"RA_OF_ASC_NODE":29.9297,"ARG_OF_PERICENTER":143.0117,"MEAN_ANOMALY":217.0819,"EPHEMERIS_TYPE":0,"CLASSIFICATION_TYPE":"U","NORAD_CAT_ID":27784,"ELEMENT_SET_NO":999,"REV_AT_EPOCH":22252,"BSTAR":0.00013831665,"MEAN_MOTION_DOT":8.63e-6,"MEAN_MOTION_DDOT":0}]
